{
    "links": {
        "self": "http://www.neowsapp.com/rest/v1/neo/3763422?api_key=iIulBulltgU6a56xZRHN4H3l9WmuAYTsLGpBGhQ2"
    },
    "id": "3763422",
    "neo_reference_id": "3763422",
    "name": "(2016 VM2)",
    "designation": "2016 VM2",
    "nasa_jpl_url": "http://ssd.jpl.nasa.gov/sbdb.cgi?sstr=3763422",
    "absolute_magnitude_h": 23.5,
    "estimated_diameter": {
        "kilometers": {
            "estimated_diameter_min": 0.0530340723,
            "estimated_diameter_max": 0.1185877909
        },
        "meters": {
            "estimated_diameter_min": 53.0340723319,
            "estimated_diameter_max": 118.5877908577
        },
        "miles": {
            "estimated_diameter_min": 0.0329538346,
            "estimated_diameter_max": 0.0736870142
        },
        "feet": {
            "estimated_diameter_min": 173.9963058693,
            "estimated_diameter_max": 389.0675677576
        }
    },
    "is_potentially_hazardous_asteroid": false,
    "close_approach_data": [
        {
            "close_approach_date": "2016-10-20",
            "close_approach_date_full": "2016-Oct-20 15:50",
            "epoch_date_close_approach": 1476978600000,
            "relative_velocity": {
                "kilometers_per_second": "5.2020371698",
                "kilometers_per_hour": "18727.3338111301",
                "miles_per_hour": "11636.4369450325"
            },
            "miss_distance": {
                "astronomical": "0.2243733878",
                "lunar": "87.2812478542",
                "kilometers": "33565780.899563986",
                "miles": "20856809.1078995668"
            },
            "orbiting_body": "Earth"
        }
    ],
    "orbital_data": {
        "orbit_id": "4",
        "orbit_determination_date": "2017-04-06 08:22:23",
        "first_observation_date": "2016-11-06",
        "last_observation_date": "2016-11-24",
        "data_arc_in_days": 18,
        "observations_used": 21,
        "orbit_uncertainty": "8",
        "minimum_orbit_intersection": ".21355",
        "jupiter_tisserand_invariant": "3.664",
        "epoch_osculation": "2457700.5",
        "eccentricity": ".4223354919854558",
        "semi_major_axis": "2.050810177096649",
        "inclination": "8.225035848267289",
        "ascending_node_longitude": "245.4733942780084",
        "orbital_period": "1072.720605221381",
        "perihelion_distance": "1.184680251983756",
        "perihelion_argument": "136.1530038739565",
        "aphelion_distance": "2.916940102209542",
        "perihelion_time": "2457679.664809929440",
        "mean_anomaly": "6.992191991924736",
        "mean_motion": ".3355953062220758",
        "equinox": "J2000",
        "orbit_class": {
            "orbit_class_type": "AMO",
            "orbit_class_description": "Near-Earth asteroid orbits similar to that of 1221 Amor",
            "orbit_class_range": "1.017 AU < q (perihelion) < 1.3 AU"
        }
    },
    "is_sentry_object": false
}